P/2011 FR143 (Lemmon),e,15.9805,190.9509,350.0772,6.859246,0.0548643,0.45063968,208.6366,07/27.0/2021,2000,g 14.0,2.0
# From MPC 82317
P/2011 JB15 (Spacewatch-Boattini),e,19.1474,153.5822,111.0560,7.357976,0.0493818,0.31743488,171.5079,07/27.0/2021,2000,g  9.0,4.0
# From MPC131894
C/2011 KP36 (Spacewatch),e,18.9866,173.2742,180.7230,39.04336,0.0040400,0.87496637,7.6183,07/27.0/2021,2000,g  4.5,4.0
# From MPC 87913
P/2011 N1 (ASH),e,35.7284,77.5927,330.3375,6.248547,0.0631009,0.54414217,211.7522,07/27.0/2021,2000,g 11.5,4.0
# From MPC 75714
P/2011 NO1 (Elenin),e,15.2479,295.8027,263.7858,5.525437,0.0758847,0.77463581,291.4676,07/27.0/2021,2000,g 15.0,4.0
# From MPC 82318
P/2011 P1 (McNaught),e,5.6601,4.2371,348.9478,7.465374,0.0483200,0.32752360,194.3205,07/27.0/2021,2000,g  9.0,4.0
# From MPC 77806
P/2011 Q3 (McNaught),e,6.0574,32.0271,310.9900,4.970586,0.0889391,0.53274680,325.4540,07/27.0/2021,2000,g 13.5,4.0
# From MPC 98558
P/2011 S1 (Gibbs),e,2.6849,218.8742,192.4339,8.584812,0.0391839,0.20065405,99.5954,07/27.0/2021,2000,g  8.0,4.0
# From MPC 79022
P/2011 UA134 (Spacewatch-PANSTARRS),e,10.4409,40.4047,32.4235,5.606796,0.0742390,0.62936018,263.3501,07/27.0/2021,2000,g 17.5,4.0
# From MPC 77406
P/2011 V1 (Boattini),e,7.3756,46.8251,269.2987,3.855660,0.1301835,0.55056782,133.9210,07/27.0/2021,2000,g 15.5,4.0
# From MPC 82718
P/2011 W1 (PANSTARRS),e,3.7186,161.7888,282.7444,4.661415,0.0979326,0.28733123,340.8338,07/27.0/2021,2000,g 11.5,4.0
# From MPC 79342
P/2011 Y2 (Boattini),e,6.3719,309.3644,131.9122,6.239677,0.0632355,0.70949889,217.0004,07/27.0/2021,2000,g 15.0,4.0
# From MPC 94669
P/2012 B1 (PANSTARRS),e,7.6126,36.2112,162.5368,6.529631,0.0590706,0.40928008,173.1755,07/27.0/2021,2000,g  9.0,4.0
# From MPC 78590
P/2012 C3 (PANSTARRS),e,9.0920,135.3677,344.9542,9.748681,0.0323806,0.63011148,359.9758,10/06.0/2011,2000,g 13.0,4.0
# From MPC 84931
P/2012 F2 (PANSTARRS),e,14.7154,227.0327,33.2973,6.330778,0.0618755,0.54222813,187.3218,07/27.0/2021,2000,g 12.0,4.0
# From MPC 79344
P/2012 G1 (PANSTARRS),e,11.6925,282.5440,286.1149,4.172871,0.1156250,0.38072240,359.9500,06/01.0/2012,2000,g 15.0,4.0
# From MPC 80898
P/2012 K3 (Gibbs),e,13.1945,125.8093,172.1945,3.625972,0.1427471,0.42330917,101.2775,07/27.0/2021,2000,g 15.0,4.0
# From MPC 88326
P/2012 NJ (La Sagra),e,84.6624,315.5454,338.3523,8.461825,0.0400413,0.84715816,133.3466,07/27.0/2021,2000,g 14.5,4.0
# From MPC 81470
P/2012 O1 (McNaught),e,7.4310,91.9739,238.2467,3.540755,0.1479314,0.59458676,129.7933,07/27.0/2021,2000,g 17.5,4.0
# From MPC 80899
P/2012 O2 (McNaught),e,24.4850,120.6805,183.4383,3.624197,0.1428520,0.53267136,116.1178,07/27.0/2021,2000,g 17.0,4.0
# From MPC 82720
P/2012 O3 (McNaught),e,16.6159,336.4141,344.7378,4.573005,0.1007863,0.64700382,329.0828,07/27.0/2021,2000,g 16.5,4.0
# From MPEC 2021-O56
P/2012 S2 (La Sagra),e,8.6853,51.1840,312.4741,4.415116,0.1062407,0.69136768,349.7329,07/27.0/2021,2000,g 17.0,4.0
# From MPEC 2021-O56
C/2016 Q2 (PANSTARRS),h,05/11.9495/2021,109.3883,322.2954,84.5330,1.000927,7.081877,2000,6.0,4.0
# From MPEC 2021-O56
C/2017 K2 (PANSTARRS),h,12/19.7353/2022,87.5535,88.2432,236.1907,1.000586,1.797406,2000,1.5,4.0
# From MPEC 2021-O56
C/2017 T2 (PANSTARRS),e,57.2262,64.3771,92.9982,2528,0.0000078,0.99936100,0.0000,05/04.9002/2020,2000,g  5.0,4.0
# From MPEC 2021-O56
C/2017 U7 (PANSTARRS),h,09/14.2138/2019,142.5915,276.2449,326.3246,1.000483,6.423831,2000,8.3,2.0
# From MPEC 2021-O56
C/2017 Y2 (PANSTARRS),h,11/04.8116/2020,128.4125,65.9943,147.9014,1.000738,4.632380,2000,15.0,4.0
# From MPEC 2021-O56
C/2018 A6 (Gibbs),e,77.0355,340.3774,264.5104,15.23605,0.0165728,0.80185853,12.3355,07/27.0/2021,2000,g  9.0,4.0
# From MPEC 2021-O56
C/2018 N2 (ASASSN),h,11/10.9942/2019,77.5324,25.2337,24.4122,1.000195,3.125033,2000,6.0,4.0
# From MPEC 2021-O56
C/2018 U1 (Lemmon),h,11/03.0032/2021,108.2966,75.4805,180.4543,1.001318,4.993023,2000,5.0,4.0
# From MPEC 2021-O56
C/2019 C1 (ATLAS),e,36.0315,212.3862,319.1744,714.3823,0.0000516,0.99078799,0.0000,05/05.3710/2020,2000,g 10.0,4.0
# From MPEC 2021-O56
C/2019 K7 (Smith),e,103.5422,307.9296,27.3281,140403,0.0000000,0.99996812,0.0000,06/17.0917/2020,2000,g  6.0,4.0
# From MPEC 2021-O56
C/2019 L3 (ATLAS),h,01/09.6569/2022,48.3647,290.7884,171.6187,1.001271,3.554427,2000,4.5,4.0
# From MPEC 2021-O56
C/2019 N1 (ATLAS),e,82.4282,13.5750,193.4442,11021,0.0000009,0.99984532,0.0000,12/01.7943/2020,2000,g  7.5,4.0
# From MPEC 2021-O56
C/2019 O3 (Palomar),h,03/08.3434/2021,89.8162,300.3830,60.0689,1.002765,8.819526,2000,3.5,4.0
# From MPEC 2021-O56
C/2019 T3 (ATLAS),e,121.8622,139.5210,112.2940,3082,0.0000058,0.99807045,0.0000,03/02.8792/2021,2000,g  6.8,4.0
# From MPEC 2021-O56
C/2019 U5 (PANSTARRS),h,03/30.1710/2023,113.5183,2.6449,181.5584,1.000720,3.622774,2000,4.5,4.0
# From MPEC 2021-O56
C/2020 F2 (ATLAS),h,07/16.3750/2022,163.5795,250.2572,48.3727,1.003781,8.816830,2000,4.5,4.0
# From MPEC 2021-O56
C/2020 F3 (NEOWISE),e,128.9439,61.0141,37.2793,340.7262,0.0001567,0.99913501,0.0000,07/03.6488/2020,2000,g  7.5,5.2
# From MPEC 2021-O56
C/2020 F5 (MASTER),h,03/24.4060/2021,51.7256,350.6105,311.1014,1.004473,4.326054,2000,6.5,3.2
# From MPEC 2021-O56
C/2020 H5 (Robinson),e,70.2242,210.6338,326.4079,3520,0.0000047,0.99734490,0.0000,12/12.0877/2020,2000,g  5.0,4.0
# From MPEC 2021-O56
C/2020 H6 (ATLAS),h,10/01.0706/2021,79.9646,213.7057,20.3475,1.000782,4.702889,2000,8.0,3.2
# From MPEC 2021-O56
C/2020 J1 (SONEAR),h,04/18.5879/2021,142.2943,226.5819,341.7519,1.000296,3.355152,2000,8.5,3.2
# From MPEC 2021-O56
C/2020 K1 (PANSTARRS),e,89.6549,94.3655,213.9644,9158,0.0000011,0.99966431,0.0000,05/09.1214/2023,2000,g  5.5,4.0
# From MPEC 2021-O56
C/2020 M5 (ATLAS),e,93.2226,352.0951,126.3393,76418,0.0000000,0.99996069,0.0000,08/19.8816/2021,2000,g  9.0,4.0
# From MPEC 2021-O56
C/2020 O2 (Amaral),h,08/28.4911/2021,71.7472,256.7558,10.2932,1.002497,4.862165,2000,8.0,3.2
# From MPEC 2021-O56
C/2020 PV6 (PANSTARRS),e,128.2394,329.1440,71.3768,41.74727,0.0036539,0.94501080,359.7771,07/27.0/2021,2000,g 10.0,4.0
# From MPEC 2021-O56
C/2020 R2 (PANSTARRS),e,53.2250,195.0920,211.7099,413.0716,0.0001174,0.98864081,0.0000,02/24.3074/2022,2000,g  9.0,4.0
# From MPEC 2021-O56
C/2020 R4 (ATLAS),e,164.4632,323.2736,46.7151,97.60216,0.0010222,0.98946067,0.0000,03/01.9397/2021,2000,g 13.5,4.0
# From MPEC 2021-O56
C/2020 S3 (Erasmus),e,19.8721,222.9517,349.9032,188.7993,0.0003799,0.99789098,0.0000,12/12.6825/2020,2000,g 13.5,3.2
# From MPEC 2021-O56
C/2020 T2 (Palomar),e,27.8730,83.0482,150.3844,311.2412,0.0001795,0.99339842,0.0000,07/11.1504/2021,2000,g 11.0,3.2
# From MPEC 2021-O56
C/2020 V2 (ZTF),h,05/08.4350/2023,131.6022,212.3477,162.3865,1.001356,2.228234,2000,4.9,4.0
# From MPEC 2021-O56
C/2020 Y2 (ATLAS),e,101.2906,26.5078,266.0977,1233,0.0000228,0.99745904,0.0000,06/17.6549/2022,2000,g  6.5,4.0
# From MPEC 2021-O56
C/2021 B2 (PANSTARRS),e,38.0937,120.5556,334.9685,342.8967,0.0001552,0.99267098,0.0000,05/04.2636/2021,2000,g 14.0,4.0
# From MPEC 2021-O56
C/2021 C4 (ATLAS),e,132.8436,194.2759,320.2345,6398,0.0000019,0.99929604,0.0000,01/17.0804/2021,2000,g  9.0,4.0
# From MPEC 2021-O56
C/2021 D2 (ZTF),h,02/03.9892/2022,83.8313,305.6764,125.0302,1.001168,2.946316,2000,9.0,4.0
# From MPEC 2021-O56
C/2021 E3 (ZTF),h,06/11.9716/2022,112.5659,104.4613,228.8535,1.000512,1.777422,2000,8.5,4.0
# From MPC 82320
P/2012 T2 (PANSTARRS),e,12.5593,73.7214,310.4650,5.734639,0.0717703,0.16138524,216.6187,07/27.0/2021,2000,g 10.0,4.0
# From MPC 80900
P/2012 T3 (PANSTARRS),e,9.5668,114.4029,195.4786,6.151503,0.0646000,0.61724423,217.7917,07/27.0/2021,2000,g 15.0,4.0
# From MPC 87914
P/2012 TK8 (Tenagra),e,6.3402,288.9636,128.0250,4.127021,0.1175572,0.27420733,349.2880,07/27.0/2021,2000,g 13.0,4.0
# From MPC 82720
P/2012 U2 (PANSTARRS),e,10.7548,185.2988,228.2634,7.138799,0.0516733,0.49854265,164.3998,07/27.0/2021,2000,g 12.5,4.0
# From MPC 84024
P/2012 US27 (Siding Spring),e,39.3456,49.1811,0.8035,5.166465,0.0839293,0.64770299,260.7267,07/27.0/2021,2000,g 13.5,4.0
# From MPC 82721
P/2012 WA34 (Lemmon-PANSTARRS),e,6.0866,94.0424,354.8046,4.727984,0.0958716,0.34610247,292.3265,07/27.0/2021,2000,g 13.5,4.0
# From MPC 82721
P/2013 AL76 (Catalina),e,144.8450,145.9838,27.0868,6.496904,0.0595175,0.68630697,187.6861,07/27.0/2021,2000,g 16.0,4.0
# From MPC 91612
P/2013 G1 (Kowalski),e,5.4641,221.3768,51.4549,6.890555,0.0544908,0.51266277,151.6452,07/27.0/2021,2000,g 11.0,4.0
# From MPC 84025
P/2013 G4 (PANSTARRS),e,5.9164,339.6383,214.6783,4.440090,0.1053456,0.40949242,325.5031,07/27.0/2021,2000,g 15.0,4.0
# From MPC 91613
P/2013 J2 (McNaught),e,15.5299,289.4132,37.7633,6.222846,0.0634922,0.65766000,183.4321,07/27.0/2021,2000,g 13.0,4.0
# From MPC 86229
P/2013 N3 (PANSTARRS),e,2.1738,17.4706,323.8994,7.391502,0.0490462,0.59329390,133.2880,07/27.0/2021,2000,g 13.0,4.0
# From MPC 85834
P/2013 N5 (PANSTARRS),e,23.4407,187.1594,176.8991,6.798259,0.0556042,0.73218887,163.7705,07/27.0/2021,2000,g 17.0,4.0
# From MPC 85834
P/2013 P1 (PANSTARRS),e,18.7241,160.5964,138.1660,8.572611,0.0392676,0.60582068,120.5075,07/27.0/2021,2000,g 12.0,4.0
# From MPC 94671
P/2013 R3 (Catalina-PANSTARRS),e,0.8653,342.0007,11.1765,3.033566,0.1865408,0.27528795,179.6152,07/27.0/2021,2000,g 14.0,4.0
# From unp
P/2013 R3-A (Catalina-PANSTARRS),e,0.8647,341.9676,11.2155,3.033424,0.1865539,0.27525746,179.6506,07/27.0/2021,2000,g  9.0,4.0
# From MPEC 2015-M77
P/2013 R3-B (Catalina-PANSTARRS),e,0.8659,342.0234,11.1504,3.033643,0.1865337,0.27530294,179.5962,07/27.0/2021,2000,g  9.0,4.0
# From MPC 85835
P/2013 T1 (PANSTARRS),e,24.2894,10.0825,346.1036,5.859941,0.0694807,0.62397347,202.5252,07/27.0/2021,2000,g 16.5,4.0
# From MPC 86643
P/2013 T2 (Schwartz),e,9.4567,0.8060,345.5174,3.490316,0.1511496,0.50124512,91.3415,07/27.0/2021,2000,g 16.0,4.0
# From MPC 91613
P/2013 W1 (PANSTARRS),e,4.6955,117.8473,1.2770,3.489776,0.1511846,0.59274376,48.3372,07/27.0/2021,2000,g 17.5,4.0
# From MPC101095
